IRIDIUM 155             
1 43573U 18061E   24337.75359208  .00000140  00000+0  42865-4 0  9999
2 43573  86.3941 291.2854 0002118  77.7059 282.4374 14.34218677332880
IRIDIUM 154             
1 43574U 18061F   24337.73456104  .00000595  00000+0  20544-3 0  9994
2 43574  86.3942 291.3987 0002241  85.3174 274.8278 14.34213608332933
IRIDIUM 163             
1 43575U 18061G   24338.41322840  .00000878  00000+0  30632-3 0  9993
2 43575  86.3946 291.0484 0002341  81.2060 278.9401 14.34222850333008
IRIDIUM 156             
1 43576U 18061H   24337.62039834  .00000814  00000+0  28362-3 0  9991
2 43576  86.3954 291.3868 0002079  74.8760 285.2666 14.34216420332885
IRIDIUM 164             
1 43577U 18061J   24338.43857775  .00000801  00000+0  27885-3 0  9999
2 43577  86.3942 291.0759 0001936  90.2996 269.8421 14.34214572333045
IRIDIUM 159             
1 43578U 18061K   24338.40687890  .00000047  00000+0  98027-5 0  9996
2 43578  86.3944 291.0377 0002138  87.4401 272.7040 14.34216031333006
IRIDIUM 180             
1 43922U 19002A   24338.40637492  .00000795  00000+0  27667-3 0  9998
2 43922  86.3998 227.9040 0002165  83.1325 277.0117 14.34218258308650
IRIDIUM 176             
1 43923U 19002B   24338.15350871  .00002615  00000+0  41053-3 0  9992
2 43923  86.6121 228.0180 0002986  85.6485 274.5073 14.72276133316700
IRIDIUM 168             
1 43924U 19002C   24338.40003241  .00000137  00000+0  41810-4 0  9996
2 43924  86.3997 227.9683 0002027  83.8471 276.2956 14.34218730308590
IRIDIUM 173             
1 43925U 19002D   24337.96873214  .00002284  00000+0  80828-3 0  9998
2 43925  86.4000 228.0601 0002378  79.7020 280.4444 14.34212446308522
IRIDIUM 169             
1 43926U 19002E   24338.49364625  .00001157  00000+0  37177-3 0  9996
2 43926  86.4224 259.4579 0003425  56.6153 303.5372 14.38608921309617
IRIDIUM 172             
1 43927U 19002F   24338.45077592  .00000558  00000+0  19232-3 0  9993
2 43927  86.3993 227.8651 0002182  86.4714 273.6731 14.34214458308599
IRIDIUM 175             
1 43928U 19002G   24338.01219203  .00002456  00000+0  38531-3 0  9995
2 43928  86.1531 191.7371 0001701  47.4457 312.6903 14.72266053316674
IRIDIUM 171             
1 43929U 19002H   24337.45498647  .00000110  00000+0  32190-4 0  9995
2 43929  86.3993 228.5248 0001746  85.3546 274.7849 14.34214116308444
IRIDIUM 170             
1 43930U 19002J   24338.02376957  .00002671  00000+0  41941-3 0  9997
2 43930  86.6123 228.0776 0002426  84.7085 275.4409 14.72272713316697
IRIDIUM 167             
1 43931U 19002K   24338.42540109  .00000117  00000+0  34849-4 0  9997
2 43931  86.3995 227.8936 0001742  74.3207 285.8181 14.34218900308585
IRIDIUM 181             
1 56726U 23068S   24338.37811004  .00001199  00000+0  34838-3 0  9997
2 56726  86.8606 289.8590 0001929  84.2065 275.9356 14.43595022 81549
IRIDIUM 177             
1 56727U 23068T   24338.09400909  .00003674  00000+0  47958-3 0  9992
2 56727  86.1993 235.1395 0002116  78.7762 281.3697 14.80259955 83364
IRIDIUM 174             
1 56728U 23068U   24338.42659423  .00003904  00000+0  51037-3 0  9996
2 56728  86.2035 235.0960 0004003  76.0862 284.0804 14.80214613 83417
IRIDIUM 178             
1 56729U 23068V   24337.74515935  .00004068  00000+0  53151-3 0  9991
2 56729  86.5782 260.8633 0002056  85.5669 274.5787 14.80261022 83318
IRIDIUM 179             
1 56730U 23068W   24338.28053605  .00004176  00000+0  54571-3 0  9991
2 56730  86.6804 266.8988 0003006  78.3962 281.7597 14.80259625 83390
